start=new Date('2023-04-21T00:00:00.000Z').valueOf();
sats=[{"DECAY_DATE":null,"MEAN_MOTION_DOT":"0.00001899","MEAN_ELEMENT_THEORY":"SGP4","BSTAR":"0.00013733000000","EPHEMERIS_TYPE":"0","NORAD_CAT_ID":"54076","CLASSIFICATION_TYPE":"U","INCLINATION":"53.2182","ELEMENT_SET_NO":"999","MEAN_ANOMALY":"259.4826","TLE_LINE2":"2 54076  53.2182  37.3142 0001053 100.6285 259.4826 15.08841205 27667","REF_FRAME":"TEME","PERIAPSIS":"539.013","ECCENTRICITY":"0.00010530","LAUNCH_DATE":"2022-10-20","CENTER_NAME":"EARTH","PERIOD":"95.437","SEMIMAJOR_AXIS":"6917.877","RCS_SIZE":"LARGE","SITE":"AFETR","OBJECT_NAME":"STARLINK-5201","APOAPSIS":"540.470","EPOCH":"2023-04-20T05:43:24.819744","COUNTRY_CODE":"US","TIME_SYSTEM":"UTC","RA_OF_ASC_NODE":"37.3142","ARG_OF_PERICENTER":"100.6285","REV_AT_EPOCH":"2766","TLE_LINE1":"1 54076U 22136AB  23110.23848171  .00001899  00000-0  13733-3 0  9994","MEAN_MOTION_DDOT":"0.0000000000000","OBJECT_TYPE":"PAYLOAD","OBJECT_ID":"2022-136AB","MEAN_MOTION":"15.08841205","GP_ID":"230430580","FILE":"3890827"},{"REV_AT_EPOCH":"2792","ARG_OF_PERICENTER":"86.1074","RA_OF_ASC_NODE":"18.0311","TIME_SYSTEM":"UTC","FILE":"3890827","GP_ID":"230431832","MEAN_MOTION":"15.08854205","OBJECT_TYPE":"PAYLOAD","OBJECT_ID":"2022-136AC","MEAN_MOTION_DDOT":"0.0000000000000","TLE_LINE1":"1 54077U 22136AC  23110.11985871  .00016147  00000-0  10299-2 0  9996","OBJECT_NAME":"STARLINK-5171","SITE":"AFETR","RCS_SIZE":"LARGE","COUNTRY_CODE":"US","EPOCH":"2023-04-20T02:52:35.792544","APOAPSIS":"540.607","ECCENTRICITY":"0.00013080","PERIAPSIS":"538.797","REF_FRAME":"TEME","TLE_LINE2":"2 54077  53.2174  18.0311 0001308  86.1074 274.0068 15.08854205 27924","SEMIMAJOR_AXIS":"6917.837","PERIOD":"95.437","CENTER_NAME":"EARTH","LAUNCH_DATE":"2022-10-20","EPHEMERIS_TYPE":"0","BSTAR":"0.00102990000000","MEAN_ELEMENT_THEORY":"SGP4","MEAN_MOTION_DOT":"0.00016147","DECAY_DATE":null,"MEAN_ANOMALY":"274.0068","ELEMENT_SET_NO":"999","INCLINATION":"53.2174","CLASSIFICATION_TYPE":"U","NORAD_CAT_ID":"54077"},{"BSTAR":"0.00038971000000","MEAN_ELEMENT_THEORY":"SGP4","MEAN_MOTION_DOT":"0.00005921","DECAY_DATE":null,"EPHEMERIS_TYPE":"0","CLASSIFICATION_TYPE":"U","NORAD_CAT_ID":"54078","MEAN_ANOMALY":"271.4022","ELEMENT_SET_NO":"999","INCLINATION":"53.2183","REF_FRAME":"TEME","PERIAPSIS":"538.818","TLE_LINE2":"2 54078  53.2183  19.1264 0001312  88.7120 271.4022 15.08846398 27890","ECCENTRICITY":"0.00013120","LAUNCH_DATE":"2022-10-20","SEMIMAJOR_AXIS":"6917.861","PERIOD":"95.437","CENTER_NAME":"EARTH","SITE":"AFETR","RCS_SIZE":"LARGE","OBJECT_NAME":"STARLINK-5138","EPOCH":"2023-04-19T22:54:11.548512","APOAPSIS":"540.633","COUNTRY_CODE":"US","TIME_SYSTEM":"UTC","REV_AT_EPOCH":"2789","ARG_OF_PERICENTER":"88.7120","RA_OF_ASC_NODE":"19.1264","MEAN_MOTION_DDOT":"0.0000000000000","TLE_LINE1":"1 54078U 22136AD  23109.95430033  .00005921  00000-0  38971-3 0  9998","FILE":"3890827","GP_ID":"230431582","MEAN_MOTION":"15.08846398","OBJECT_ID":"2022-136AD","OBJECT_TYPE":"PAYLOAD"},{"TIME_SYSTEM":"UTC","RA_OF_ASC_NODE":"28.8802","ARG_OF_PERICENTER":"87.0613","REV_AT_EPOCH":"2776","TLE_LINE1":"1 54079U 22136AE  23110.03339745  .00005796  00000-0  38193-3 0  9994","MEAN_MOTION_DDOT":"0.0000000000000","OBJECT_ID":"2022-136AE","OBJECT_TYPE":"PAYLOAD","MEAN_MOTION":"15.08843054","GP_ID":"230430831","FILE":"3890827","RCS_SIZE":"LARGE","SITE":"AFETR","OBJECT_NAME":"STARLINK-5175","APOAPSIS":"540.610","EPOCH":"2023-04-20T00:48:05.539680","COUNTRY_CODE":"US","TLE_LINE2":"2 54079  53.2189  28.8802 0001264  87.0613 273.0523 15.08843054 27763","PERIAPSIS":"538.862","REF_FRAME":"TEME","ECCENTRICITY":"0.00012640","LAUNCH_DATE":"2022-10-20","CENTER_NAME":"EARTH","PERIOD":"95.437","SEMIMAJOR_AXIS":"6917.871","DECAY_DATE":null,"MEAN_MOTION_DOT":"0.00005796","MEAN_ELEMENT_THEORY":"SGP4","BSTAR":"0.00038193000000","EPHEMERIS_TYPE":"0","NORAD_CAT_ID":"54079","CLASSIFICATION_TYPE":"U","INCLINATION":"53.2189","ELEMENT_SET_NO":"999","MEAN_ANOMALY":"273.0523"},{"MEAN_ANOMALY":"269.2745","INCLINATION":"53.2177","ELEMENT_SET_NO":"999","CLASSIFICATION_TYPE":"U","NORAD_CAT_ID":"54080","EPHEMERIS_TYPE":"0","BSTAR":"0.00037559000000","MEAN_ELEMENT_THEORY":"SGP4","DECAY_DATE":null,"MEAN_MOTION_DOT":"0.00005696","PERIOD":"95.437","SEMIMAJOR_AXIS":"6917.855","CENTER_NAME":"EARTH","LAUNCH_DATE":"2022-10-20","ECCENTRICITY":"0.00012410","TLE_LINE2":"2 54080  53.2177  33.4355 0001241  90.8389 269.2745 15.08848227 27719","REF_FRAME":"TEME","PERIAPSIS":"538.862","COUNTRY_CODE":"US","APOAPSIS":"540.579","EPOCH":"2023-04-20T04:34:04.001376","OBJECT_NAME":"STARLINK-5160","SITE":"AFETR","RCS_SIZE":"LARGE","GP_ID":"230431081","FILE":"3890827","OBJECT_ID":"2022-136AF","OBJECT_TYPE":"PAYLOAD","MEAN_MOTION":"15.08848227","TLE_LINE1":"1 54080U 22136AF  23110.19032409  .00005696  00000-0  37559-3 0  9994","MEAN_MOTION_DDOT":"0.0000000000000","REV_AT_EPOCH":"2771","RA_OF_ASC_NODE":"33.4355","ARG_OF_PERICENTER":"90.8389","TIME_SYSTEM":"UTC"},{"CENTER_NAME":"EARTH","PERIOD":"95.437","SEMIMAJOR_AXIS":"6917.852","LAUNCH_DATE":"2022-10-20","ECCENTRICITY":"0.00011680","TLE_LINE2":"2 54081  53.2186  32.4017 0001168 100.8740 259.2383 15.08849330 27640","REF_FRAME":"TEME","PERIAPSIS":"538.909","INCLINATION":"53.2186","ELEMENT_SET_NO":"999","MEAN_ANOMALY":"259.2383","NORAD_CAT_ID":"54081","CLASSIFICATION_TYPE":"U","EPHEMERIS_TYPE":"0","DECAY_DATE":null,"MEAN_MOTION_DOT":"0.00004030","BSTAR":"0.00027109000000","MEAN_ELEMENT_THEORY":"SGP4","OBJECT_ID":"2022-136AG","OBJECT_TYPE":"PAYLOAD","MEAN_MOTION":"15.08849330","GP_ID":"230368745","FILE":"3890383","TLE_LINE1":"1 54081U 22136AG  23109.23114539  .00004030  00000-0  27109-3 0  9994","MEAN_MOTION_DDOT":"0.0000000000000","RA_OF_ASC_NODE":"32.4017","ARG_OF_PERICENTER":"100.8740","REV_AT_EPOCH":"2764","TIME_SYSTEM":"UTC","COUNTRY_CODE":"US","APOAPSIS":"540.525","EPOCH":"2023-04-19T05:32:50.961696","OBJECT_NAME":"STARLINK-5165","RCS_SIZE":"LARGE","SITE":"AFETR"},{"DECAY_DATE":null,"MEAN_MOTION_DOT":"0.00001626","BSTAR":"0.00012019000000","MEAN_ELEMENT_THEORY":"SGP4","EPHEMERIS_TYPE":"0","NORAD_CAT_ID":"54082","CLASSIFICATION_TYPE":"U","INCLINATION":"53.2193","ELEMENT_SET_NO":"999","MEAN_ANOMALY":"278.1170","TLE_LINE2":"2 54082  53.2193  28.8561 0001299  81.9970 278.1170 15.08842967 27767","PERIAPSIS":"538.838","REF_FRAME":"TEME","ECCENTRICITY":"0.00012990","LAUNCH_DATE":"2022-10-20","CENTER_NAME":"EARTH","PERIOD":"95.437","SEMIMAJOR_AXIS":"6917.871","RCS_SIZE":"LARGE","SITE":"AFETR","OBJECT_NAME":"STARLINK-5210","EPOCH":"2023-04-20T00:42:47.293056","APOAPSIS":"540.635","COUNTRY_CODE":"US","TIME_SYSTEM":"UTC","RA_OF_ASC_NODE":"28.8561","ARG_OF_PERICENTER":"81.9970","REV_AT_EPOCH":"2776","TLE_LINE1":"1 54082U 22136AH  23110.02971404  .00001626  00000-0  12019-3 0  9998","MEAN_MOTION_DDOT":"0.0000000000000","OBJECT_ID":"2022-136AH","OBJECT_TYPE":"PAYLOAD","MEAN_MOTION":"15.08842967","GP_ID":"230432083","FILE":"3890827"},{"ECCENTRICITY":"0.00013300","TLE_LINE2":"2 54083  53.2184  27.8976 0001330 106.5839 253.5299 15.08851379 27790","PERIAPSIS":"538.791","REF_FRAME":"TEME","PERIOD":"95.437","SEMIMAJOR_AXIS":"6917.846","CENTER_NAME":"EARTH","LAUNCH_DATE":"2022-10-20","EPHEMERIS_TYPE":"0","BSTAR":"0.00005878900000","MEAN_ELEMENT_THEORY":"SGP4","DECAY_DATE":null,"MEAN_MOTION_DOT":"0.00000648","MEAN_ANOMALY":"253.5299","INCLINATION":"53.2184","ELEMENT_SET_NO":"999","CLASSIFICATION_TYPE":"U","NORAD_CAT_ID":"54083","REV_AT_EPOCH":"2779","RA_OF_ASC_NODE":"27.8976","ARG_OF_PERICENTER":"106.5839","TIME_SYSTEM":"UTC","GP_ID":"230430331","FILE":"3890827","OBJECT_TYPE":"PAYLOAD","OBJECT_ID":"2022-136AJ","MEAN_MOTION":"15.08851379","TLE_LINE1":"1 54083U 22136AJ  23110.21737155  .00000648  00000-0  58789-4 0  9991","MEAN_MOTION_DDOT":"0.0000000000000","OBJECT_NAME":"STARLINK-5178","SITE":"AFETR","RCS_SIZE":"LARGE","COUNTRY_CODE":"US","EPOCH":"2023-04-20T05:13:00.901920","APOAPSIS":"540.631"},{"ARG_OF_PERICENTER":"82.1894","RA_OF_ASC_NODE":"29.1119","REV_AT_EPOCH":"2775","TIME_SYSTEM":"UTC","MEAN_MOTION":"15.08839948","OBJECT_TYPE":"PAYLOAD","OBJECT_ID":"2022-136AK","FILE":"3890827","GP_ID":"230430581","MEAN_MOTION_DDOT":"0.0000000000000","TLE_LINE1":"1 54084U 22136AK  23109.95706171  .00001640  00000-0  12109-3 0  9993","OBJECT_NAME":"STARLINK-5183","RCS_SIZE":"LARGE","SITE":"AFETR","COUNTRY_CODE":"US","APOAPSIS":"540.379","EPOCH":"2023-04-19T22:58:10.131744","ECCENTRICITY":"0.00009160","REF_FRAME":"TEME","PERIAPSIS":"539.112","TLE_LINE2":"2 54084  53.2193  29.1119 0000916  82.1894 277.9202 15.08839948 27752","CENTER_NAME":"EARTH","SEMIMAJOR_AXIS":"6917.881","PERIOD":"95.438","LAUNCH_DATE":"2022-10-20","EPHEMERIS_TYPE":"0","MEAN_MOTION_DOT":"0.00001640","DECAY_DATE":null,"BSTAR":"0.00012109000000","MEAN_ELEMENT_THEORY":"SGP4","ELEMENT_SET_NO":"999","INCLINATION":"53.2193","MEAN_ANOMALY":"277.9202","NORAD_CAT_ID":"54084","CLASSIFICATION_TYPE":"U"},{"SEMIMAJOR_AXIS":"6917.822","PERIOD":"95.436","CENTER_NAME":"EARTH","LAUNCH_DATE":"2022-10-20","ECCENTRICITY":"0.00010230","PERIAPSIS":"538.980","REF_FRAME":"TEME","TLE_LINE2":"2 54085  53.2186  29.0644 0001023  94.7944 265.3165 15.08858959 28227","MEAN_ANOMALY":"265.3165","ELEMENT_SET_NO":"999","INCLINATION":"53.2186","CLASSIFICATION_TYPE":"U","NORAD_CAT_ID":"54085","EPHEMERIS_TYPE":"0","BSTAR":"0.00071246000000","MEAN_ELEMENT_THEORY":"SGP4","MEAN_MOTION_DOT":"0.00011075","DECAY_DATE":null,"FILE":"3891035","GP_ID":"230437530","MEAN_MOTION":"15.08858959","OBJECT_TYPE":"PAYLOAD","OBJECT_ID":"2022-136AL","MEAN_MOTION_DDOT":"0.0000000000000","TLE_LINE1":"1 54085U 22136AL  23109.94872549  .00011075  00000-0  71246-3 0  9996","REV_AT_EPOCH":"2822","ARG_OF_PERICENTER":"94.7944","RA_OF_ASC_NODE":"29.0644","TIME_SYSTEM":"UTC","COUNTRY_CODE":"US","EPOCH":"2023-04-19T22:46:09.882336","APOAPSIS":"540.395","OBJECT_NAME":"STARLINK-5166","SITE":"AFETR","RCS_SIZE":"LARGE"}];
